NORAD_CAT_ID,OBJECT_NAME,OBJECT_TYPE,EPOCH,MEAN_MOTION,ECCENTRICITY,INCLINATION,RA_OF_ASC_NODE,ARG_OF_PERICENTER,MEAN_ANOMALY,BSTAR,MEAN_MOTION_DOT,MEAN_MOTION_DDOT,TLE_LINE0,TLE_LINE1,TLE_LINE2,SEMIMAJOR_AXIS,PERIOD,APOGEE,PERIGEE,DECAYED
52874.0,STARLINK-4210,PAYLOAD,2022-06-22 16:00:00,15.90905164,0.0040751,53.2176,20.0993,56.0194,201.2056,-0.0024652,-0.00857316,0.00022933,0 STARLINK-4210,1 52874U 22062AW  22173.66667824 -.00857316  22933-3 -24652-2 0  9993,2 52874  53.2176  20.0993 0040751  56.0194 201.2056 15.90905164  1307,6677.886,90.515,326.964,272.538,0.0
52874.0,STARLINK-4210,PAYLOAD,2022-06-22 22:00:00,15.90498519,0.0037945,53.2174,18.8315,56.4681,193.2108,-0.0025463,-0.00857814,0.00022867,0 STARLINK-4210,1 52874U 22062AW  22173.91667824 -.00857814  22867-3 -25463-2 0  9991,2 52874  53.2174  18.8315 0037945  56.4681 193.2108 15.90498519  1303,6679.024,90.538,326.232,275.545,0.0
52874.0,STARLINK-4210,PAYLOAD,2022-06-23 06:00:00,15.89941828,0.0034973,53.2174,17.1387,57.3272,301.7271,-0.0025566,-0.00828508,0.00021367,0 STARLINK-4210,1 52874U 22062AW  22174.25001157 -.00828508  21367-3 -25566-2 0  9996,2 52874  53.2174  17.1387 0034973  57.3272 301.7271 15.89941828  1398,6680.583000000001,90.569,325.812,279.084,0.0
52874.0,STARLINK-4210,PAYLOAD,2022-06-23 14:00:01,15.89387352,0.0032845,53.2177,15.4476,57.6838,50.0928,-0.002566,-0.00802948,0.00020092,0 STARLINK-4210,1 52874U 22062AW  22174.58334491 -.00802948  20092-3 -25660-2 0  9991,2 52874  53.2177  15.4476 0032845  57.6838  50.0928 15.89387352  1443,6682.136,90.601,325.949,282.0540000000001,0.0
52874.0,STARLINK-4210,PAYLOAD,2022-06-23 22:00:00,15.88866222,0.0030026,53.2177,13.7611,57.7688,158.0648,-0.0028055,-0.00847573,0.00022034,0 STARLINK-4210,1 52874U 22062AW  22174.91667824 -.00847573  22034-3 -28055-2 0  9999,2 52874  53.2177  13.7611 0030026  57.7688 158.0648 15.88866222  1498,6683.597,90.631,325.531,285.394,0.0
52874.0,STARLINK-4210,PAYLOAD,2022-06-24 06:00:02,15.88323416,0.0027578,53.2174,12.0721,57.3235,265.9913,-0.0029011,-0.00847304,0.0002191,0 STARLINK-4210,1 52874U 22062AW  22175.25002315 -.00847304  21910-3 -29011-2 0  9992,2 52874  53.2174  12.0721 0027578  57.3235 265.9913 15.88323416  1554,6685.12,90.662,325.421,288.5490000000001,0.0
52874.0,STARLINK-4210,PAYLOAD,2022-06-24 14:00:01,15.87761083,0.0025253,53.2175,10.3854,59.0206,10.9972,-0.0028527,-0.0080591,0.00019919,0 STARLINK-4210,1 52874U 22062AW  22175.58334491 -.00805910  19919-3 -28527-2 0  9995,2 52874  53.2175  10.3854 0025253  59.0206  10.9972 15.87761083  1309,6686.698,90.694,325.449,291.678,0.0
52874.0,STARLINK-4210,PAYLOAD,2022-06-24 20:00:01,15.87358073,0.0022968,53.2173,9.1236,59.2716,0.3871,-0.0029522,-0.00813443,0.00020179,0 STARLINK-4210,1 52874U 22062AW  22175.83334491 -.00813443  20179-3 -29522-2 0  9999,2 52874  53.2173   9.1236 0022968  59.2716   0.3871 15.87358073  1644,6687.83,90.717,325.056,294.335,0.0
52874.0,STARLINK-4210,PAYLOAD,2022-06-24 22:00:01,15.87229752,0.0022523,53.2176,8.7027,59.1942,116.9945,-0.0030297,-0.0082863,0.00020836,0 STARLINK-4210,1 52874U 22062AW  22175.91668981 -.00828630  20836-3 -30297-2 0  9997,2 52874  53.2176   8.7027 0022523  59.1942 116.9945 15.87229752  1307,6688.191,90.724,325.119,294.992,0.0
52874.0,STARLINK-4210,PAYLOAD,2022-06-25 14:00:01,15.86142023,0.0017723,53.2178,5.3354,59.7445,326.6447,-0.0032025,-0.00759364,0.0,0 STARLINK-4210,1 52874U 22062AW  22176.58334491 -.00759364  00000-0 -32025-2 0  9993,2 52874  53.2178   5.3354 0017723  59.7445 326.6447 15.86142023  1766,6691.248000000001,90.786,324.972,301.254,0.0
52874.0,STARLINK-4210,PAYLOAD,2022-06-25 22:00:00,15.8559402,0.0015127,53.2175,3.6567,58.8134,71.7308,-0.0032542,-0.00748709,0.0,0 STARLINK-4210,1 52874U 22062AW  22176.91667824 -.00748709  00000-0 -32542-2 0  9994,2 52874  53.2175   3.6567 0015127  58.8134  71.7308 15.85594020  1302,6692.79,90.818,324.779,304.53,0.0
52874.0,STARLINK-4210,PAYLOAD,2022-06-26 14:00:01,15.84524818,0.0010665,53.2177,0.2972,56.5136,280.4453,-0.0035836,-0.00775633,0.0,0 STARLINK-4210,1 52874U 22062AW  22177.58335648 -.00775633  00000-0 -35836-2 0  9999,2 52874  53.2177   0.2972 0010665  56.5136 280.4453 15.84524818  1921,6695.8,90.879,324.806,310.524,0.0
52874.0,STARLINK-4210,PAYLOAD,2022-06-26 22:00:00,15.83964492,0.0007791,53.2176,358.6225,52.8216,26.2751,-0.0035274,-0.00743583,0.0,0 STARLINK-4210,1 52874U 22062AW  22177.91667824 -.00743583  00000-0 -35274-2 0  9995,2 52874  53.2176 358.6225 0007791  52.8216  26.2751 15.83964492  1309,6697.379,90.911,324.462,314.026,0.0
52874.0,STARLINK-4210,PAYLOAD,2022-06-27 06:00:00,15.83435412,0.0005757999999999,53.2176,356.9452,47.3469,133.293,-0.0037442,-0.00766264,0.0,0 STARLINK-4210,1 52874U 22062AW  22178.25001157 -.00766264  00000-0 -37442-2 0  9994,2 52874  53.2176 356.9452 0005758  47.3469 133.2930 15.83435412  2025,6698.871,90.942,324.593,316.879,0.0
52874.0,STARLINK-4210,PAYLOAD,2022-06-27 14:00:01,15.82902424,0.0004079,53.2176,355.2714,35.3635,246.1678,-0.0039344,-0.00782639,0.0,0 STARLINK-4210,1 52874U 22062AW  22178.58334491 -.00782639  00000-0 -39344-2 0  9997,2 52874  53.2176 355.2714 0004079  35.3635 246.1678 15.82902424  1309,6700.375,90.972,324.973,319.506,0.0
52874.0,STARLINK-4210,PAYLOAD,2022-06-27 22:00:00,15.82348116,0.0002882,53.2173,353.6006,12.888,8.8892,-0.0039247,-0.00761807,0.0,0 STARLINK-4210,1 52874U 22062AW  22178.91667824 -.00761807  00000-0 -39247-2 0  9999,2 52874  53.2173 353.6006 0002882  12.8880   8.8892 15.82348116  2139,6701.939,91.004,325.736,321.873,0.0
52874.0,STARLINK-4210,PAYLOAD,2022-06-28 14:00:01,15.81264957,0.000283,53.2178,350.2575,13.1558,207.1519,-0.0041458999999999,-0.00764586,0.0,0 STARLINK-4210,1 52874U 22062AW  22179.58334491 -.00764586  00000-0 -41459-2 0  9999,2 52874  53.2178 350.2575 0002830  13.1558 207.1519 15.81264957  1304,6704.999,91.066,328.76199999999994,324.967,0.0
52874.0,STARLINK-4210,PAYLOAD,2022-06-28 22:00:00,15.80719978,0.0002524,53.2175,348.5905,8.2739,310.3208,-0.0042248,-0.00759921,0.0,0 STARLINK-4210,1 52874U 22062AW  22179.91667824 -.00759921  00000-0 -42248-2 0  9999,2 52874  53.2175 348.5905 0002524   8.2739 310.3208 15.80719978  2292,6706.54,91.098,330.098,326.713,0.0
52874.0,STARLINK-4210,PAYLOAD,2022-06-29 14:00:01,15.79638474,0.0003201,53.2175,345.2555,356.9999,156.2675,-0.0044797,-0.00766216,0.0,0 STARLINK-4210,1 52874U 22062AW  22180.58334491 -.00766216  00000-0 -44797-2 0  9991,2 52874  53.2175 345.2555 0003201 356.9999 156.2675 15.79638474  1306,6709.601,91.16,333.6140000000001,329.3180000000001,0.0
52874.0,STARLINK-4210,PAYLOAD,2022-06-29 22:00:00,15.79082948,0.0002404,53.2173,343.5924,281.4908,328.1115,-0.0044455,-0.00743002,0.0,0 STARLINK-4210,1 52874U 22062AW  22180.91667824 -.00743002  00000-0 -44455-2 0  9996,2 52874  53.2173 343.5924 0002404 281.4908 328.1115 15.79082948  1309,6711.175,91.192,334.653,331.426,0.0
52874.0,STARLINK-4210,PAYLOAD,2022-06-30 14:00:01,15.78010321,0.000147,53.2177,340.2658,33.4887,46.8175,-0.0048143,-0.00764175,0.0,0 STARLINK-4210,1 52874U 22062AW  22181.58334491 -.00764175  00000-0 -48143-2 0  9993,2 52874  53.2177 340.2658 0001470  33.4887  46.8175 15.78010321  1309,6714.215999999999,91.254,337.0680000000001,335.094,0.0
52874.0,STARLINK-4210,PAYLOAD,2022-06-30 22:00:00,15.77462938,0.0001355,53.2172,338.6063,50.005,124.6779,-0.0048722,-0.00755287,0.0,0 STARLINK-4210,1 52874U 22062AW  22181.91667824 -.00755287  00000-0 -48722-2 0  9996,2 52874  53.2172 338.6063 0001355  50.0050 124.6779 15.77462938  1303,6715.769,91.286,338.5440000000001,336.724,0.0
52874.0,STARLINK-4210,PAYLOAD,2022-07-01 14:00:01,15.76382759,0.0001328,53.2175,335.2877,43.9823,317.4955,-0.0051758,-0.00763748,0.0,0 STARLINK-4210,1 52874U 22062AW  22182.58334491 -.00763748  00000-0 -51758-2 0  9995,2 52874  53.2175 335.2877 0001328  43.9823 317.4955 15.76382759  1311,6718.8359999999975,91.348,341.594,339.809,0.0
52874.0,STARLINK-4210,PAYLOAD,2022-07-01 22:00:00,15.7583806,0.0001152,53.2172,333.6322,59.2598,34.638000000000005,-0.0052677,-0.00759124,0.0,0 STARLINK-4210,1 52874U 22062AW  22182.91667824 -.00759124  00000-0 -52677-2 0  9995,2 52874  53.2172 333.6322 0001152  59.2598  34.6380 15.75838060  2769,6720.384,91.38,343.024,341.475,0.0
52874.0,STARLINK-4210,PAYLOAD,2022-07-02 14:00:01,15.7475385,0.000153,53.2177,330.32199999999995,39.7208,237.0618,-0.0055384,-0.00760881,0.0,0 STARLINK-4210,1 52874U 22062AW  22183.58334491 -.00760881  00000-0 -55384-2 0  9990,2 52874  53.2177 330.3220 0001530  39.7208 237.0618 15.74753850  1300,6723.469,91.443,346.362,344.305,0.0
52874.0,STARLINK-4210,PAYLOAD,2022-07-02 22:00:00,15.74213851,0.0001145,53.2171,328.6701,48.4608,318.7847,-0.005704,-0.0076488999999999,0.0,0 STARLINK-4210,1 52874U 22062AW  22183.91667824 -.00764890  00000-0 -57040-2 0  9991,2 52874  53.2171 328.6701 0001145  48.4608 318.7847 15.74213851  2923,6725.005999999999,91.474,347.641,346.101,0.0
52874.0,STARLINK-4210,PAYLOAD,2022-07-03 14:00:01,15.73203348,0.0001485,53.2174,325.3678,38.6607,147.6295,7.6851e-06,4.59e-06,0.0,0 STARLINK-4210,1 52874U 22062AW  22184.58334491  .00000459  00000-0  76851-5 0  9992,2 52874  53.2174 325.3678 0001485  38.6607 147.6295 15.73203348  3027,6727.886,91.533,350.75,348.75199999999984,0.0
52874.0,STARLINK-4210,PAYLOAD,2022-07-03 22:00:00,15.73279407,0.0001561999999999,53.2154,323.7189,35.4427,239.8408,-0.00033056,-0.00046913,0.0,0 STARLINK-4210,1 52874U 22062AW  22184.91667824 -.00046913  00000-0 -33056-3 0  9993,2 52874  53.2154 323.7189 0001562  35.4427 239.8408 15.73279407  1303,6727.669,91.529,350.585,348.483,0.0
52874.0,STARLINK-4210,PAYLOAD,2022-07-04 06:00:00,15.73214786,0.0001426999999999,53.2157,322.0673,41.7717,322.5015,-0.00026623,-0.0003784,0.0,0 STARLINK-4210,1 52874U 22062AW  22185.25001157 -.00037840  00000-0 -26623-3 0  9993,2 52874  53.2157 322.0673 0001427  41.7717 322.5015 15.73214786  3134,6727.853,91.532,350.67800000000005,348.7580000000001,0.0
